{"type": "FeatureCollection", "features": [ {"type": "Feature", "properties": {"norad_id": 31895, "name": "FENGYUN 1C DEB", "group": "fengyun-1c-debris", "lat": 75.21809496204669, "lon": -125.08979600548156, "alt_km": 1060.2040543413714, "timestamp": "2025-12-14T16:47:40.968342+00:00", "meta": {"OBJECT_NAME": "FENGYUN 1C DEB", "OBJECT_ID": "1999-025CKW", "EPOCH": "2025-12-12T20:38:21.434784", "MEAN_MOTION": 13.75531476, "ECCENTRICITY": 0.02270891, "INCLINATION": 99.0992, "RA_OF_ASC_NODE": 15.7563, "ARG_OF_PERICENTER": 229.2831, "MEAN_ANOMALY": 128.84, "EPHEMERIS_TYPE": 0, "CLASSIFICATION_TYPE": "U", "NORAD_CAT_ID": 31895, "ELEMENT_SET_NO": 999, "REV_AT_EPOCH": 61898, "BSTAR": 0.0035421505, "MEAN_MOTION_DOT": 4.076e-05, "MEAN_MOTION_DDOT": 0}, "tle": {"line1": "1 31895U 99025CKW 25346.85997031  .00004076  00000+0  35422-2 0  9997", "line2": "2 31895  99.0992  15.7563 0227089 229.2831 128.8400 13.75531476618985"}}, "geometry": {"type": "Point", "coordinates": [-125.08979600548156, 75.21809496204669]}}, {"type": "Feature", "properties": {"norad_id": 31898, "name": "FENGYUN 1C DEB", "group": "fengyun-1c-debris", "lat": -61.74874506505465, "lon": 17.023715623993265, "alt_km": 584.5637126801967, "timestamp": "2025-12-14T16:47:40.968352+00:00", "meta": {"OBJECT_NAME": "FENGYUN 1C DEB", "OBJECT_ID": "1999-025CKZ", "EPOCH": "2025-12-09T09:45:56.221344", "MEAN_MOTION": 14.68362334, "ECCENTRICITY": 0.01439261, "INCLINATION": 98.7065, "RA_OF_ASC_NODE": 207.9611, "ARG_OF_PERICENTER": 229.9634, "MEAN_ANOMALY": 128.887, "EPHEMERIS_TYPE": 0, "CLASSIFICATION_TYPE": "U", "NORAD_CAT_ID": 31898, "ELEMENT_SET_NO": 999, "REV_AT_EPOCH": 65663, "BSTAR": 0.0015942515, "MEAN_MOTION_DOT": 0.00010733, "MEAN_MOTION_DDOT": 0}, "tle": {"line1": "1 31898U 99025CKZ 25343.40690071  .00010733  00000+0  15943-2 0  9995", "line2": "2 31898  98.7065 207.9611 0143926 229.9634 128.8870 14.68362334656632"}}, "geometry": {"type": "Point", "coordinates": [17.023715623993265, -61.74874506505465]}}, {"type": "Feature", "properties": {"norad_id": 31899, "name": "FENGYUN 1C DEB", "group": "fengyun-1c-debris", "lat": 53.041826767331116, "lon": 35.62033353528674, "alt_km": 962.4680011000537, "timestamp": "2025-12-14T16:47:40.968362+00:00", "meta": {"OBJECT_NAME": "FENGYUN 1C DEB", "OBJECT_ID": "1999-025CLA", "EPOCH": "2025-12-13T11:01:14.971584", "MEAN_MOTION": 13.83519633, "ECCENTRICITY": 0.01829032, "INCLINATION": 102.0834, "RA_OF_ASC_NODE": 50.5717, "ARG_OF_PERICENTER": 155.819, "MEAN_ANOMALY": 205.1674, "EPHEMERIS_TYPE": 0, "CLASSIFICATION_TYPE": "U", "NORAD_CAT_ID": 31899, "ELEMENT_SET_NO": 999, "REV_AT_EPOCH": 67574, "BSTAR": 0.0020716021, "MEAN_MOTION_DOT": 2.533e-05, "MEAN_MOTION_DDOT": 0}, "tle": {"line1": "1 31899U 99025CLA 25347.45920106  .00002533  00000+0  20716-2 0  9993", "line2": "2 31899 102.0834  50.5717 0182903 155.8190 205.1674 13.83519633675743"}}, "geometry": {"type": "Point", "coordinates": [35.62033353528674, 53.041826767331116]}}, {"type": "Feature", "properties": {"norad_id": 31901, "name": "FENGYUN 1C DEB", "group": "fengyun-1c-debris", "lat": -55.518046556909404, "lon": 116.99980855014894, "alt_km": 861.803928692545, "timestamp": "2025-12-14T16:47:40.968372+00:00", "meta": {"OBJECT_NAME": "FENGYUN 1C DEB", "OBJECT_ID": "1999-025CLC", "EPOCH": "2025-12-11T15:19:32.999232", "MEAN_MOTION": 13.94142436, "ECCENTRICITY": 0.01312062, "INCLINATION": 98.6009, "RA_OF_ASC_NODE": 306.8787, "ARG_OF_PERICENTER": 192.6168, "MEAN_ANOMALY": 167.17, "EPHEMERIS_TYPE": 0, "CLASSIFICATION_TYPE": "U", "NORAD_CAT_ID": 31901, "ELEMENT_SET_NO": 999, "REV_AT_EPOCH": 63392, "BSTAR": 0.00012353957, "MEAN_MOTION_DOT": 1.36e-06, "MEAN_MOTION_DDOT": 0}, "tle": {"line1": "1 31901U 99025CLC 25345.63857638  .00000136  00000+0  12354-3 0  9991", "line2": "2 31901  98.6009 306.8787 0131206 192.6168 167.1700 13.94142436633925"}}, "geometry": {"type": "Point", "coordinates": [116.99980855014894, -55.518046556909404]}}, {"type": "Feature", "properties": {"norad_id": 31902, "name": "FENGYUN 1C DEB", "group": "fengyun-1c-debris", "lat": 68.75058450449393, "lon": 171.1504537889209, "alt_km": 699.020787062037, "timestamp": "2025-12-14T16:47:40.968381+00:00", "meta": {"OBJECT_NAME": "FENGYUN 1C DEB", "OBJECT_ID": "1999-025CLD", "EPOCH": "2025-12-10T10:05:10.584960", "MEAN_MOTION": 14.23274205, "ECCENTRICITY": 0.01806752, "INCLINATION": 98.5073, "RA_OF_ASC_NODE": 324.3737, "ARG_OF_PERICENTER": 155.9063, "MEAN_ANOMALY": 359.8247, "EPHEMERIS_TYPE": 0, "CLASSIFICATION_TYPE": "U", "NORAD_CAT_ID": 31902, "ELEMENT_SET_NO": 999, "REV_AT_EPOCH": 64758, "BSTAR": 0.00029249219, "MEAN_MOTION_DOT": 7.4e-06, "MEAN_MOTION_DDOT": 0}, "tle": {"line1": "1 31902U 99025CLD 25344.42026140  .00000740  00000+0  29249-3 0  9996", "line2": "2 31902  98.5073 324.3737 0180675 155.9063 359.8247 14.23274205647582"}}, "geometry": {"type": "Point", "coordinates": [171.1504537889209, 68.75058450449393]}}, {"type": "Feature", "properties": {"norad_id": 31903, "name": "FENGYUN 1C DEB", "group": "fengyun-1c-debris", "lat": -41.25017087179822, "lon": 149.11374263652564, "alt_km": 787.9859029939416, "timestamp": "2025-12-14T16:47:40.968391+00:00", "meta": {"OBJECT_NAME": "FENGYUN 1C DEB", "OBJECT_ID": "1999-025CLE", "EPOCH": "2025-12-13T21:41:52.796256", "MEAN_MOTION": 14.60501472, "ECCENTRICITY": 0.01299864, "INCLINATION": 99.2749, "RA_OF_ASC_NODE": 336.4631, "ARG_OF_PERICENTER": 32.4518, "MEAN_ANOMALY": 328.4588, "EPHEMERIS_TYPE": 0, "CLASSIFICATION_TYPE": "U", "NORAD_CAT_ID": 31903, "ELEMENT_SET_NO": 999, "REV_AT_EPOCH": 97412, "BSTAR": 0.00090154577, "MEAN_MOTION_DOT": 4.865e-05, "MEAN_MOTION_DDOT": 0}, "tle": {"line1": "1 31903U 99025CLE 25347.90408329  .00004865  00000+0  90155-3 0  9992", "line2": "2 31903  99.2749 336.4631 0129986  32.4518 328.4588 14.60501472974123"}}, "geometry": {"type": "Point", "coordinates": [149.11374263652564, -41.25017087179822]}}, {"type": "Feature", "properties": {"norad_id": 31905, "name": "FENGYUN 1C DEB", "group": "fengyun-1c-debris", "lat": 52.67265203679431, "lon": 157.25631759346706, "alt_km": 664.2663565534885, "timestamp": "2025-12-14T16:47:40.968401+00:00", "meta": {"OBJECT_NAME": "FENGYUN 1C DEB", "OBJECT_ID": "1999-025CLG", "EPOCH": "2025-12-13T05:02:10.517280", "MEAN_MOTION": 14.3310481, "ECCENTRICITY": 0.01968528, "INCLINATION": 99.1498, "RA_OF_ASC_NODE": 323.4803, "ARG_OF_PERICENTER": 92.6055, "MEAN_ANOMALY": 269.7677, "EPHEMERIS_TYPE": 0, "CLASSIFICATION_TYPE": "U", "NORAD_CAT_ID": 31905, "ELEMENT_SET_NO": 999, "REV_AT_EPOCH": 96631, "BSTAR": 0.00083920006, "MEAN_MOTION_DOT": 2.804e-05, "MEAN_MOTION_DDOT": 0}, "tle": {"line1": "1 31905U 99025CLG 25347.20984395  .00002804  00000+0  83920-3 0  9992", "line2": "2 31905  99.1498 323.4803 0196852  92.6055 269.7677 14.33104810966315"}}, "geometry": {"type": "Point", "coordinates": [157.25631759346706, 52.67265203679431]}}, {"type": "Feature", "properties": {"norad_id": 31906, "name": "FENGYUN 1C DEB", "group": "fengyun-1c-debris", "lat": 52.75854133414052, "lon": 110.18775224450161, "alt_km": 788.6918922804925, "timestamp": "2025-12-14T16:47:40.968411+00:00", "meta": {"OBJECT_NAME": "FENGYUN 1C DEB", "OBJECT_ID": "1999-025CLH", "EPOCH": "2025-12-13T15:20:52.617696", "MEAN_MOTION": 14.24658752, "ECCENTRICITY": 0.00518044, "INCLINATION": 98.6915, "RA_OF_ASC_NODE": 120.7471, "ARG_OF_PERICENTER": 121.7338, "MEAN_ANOMALY": 257.6192, "EPHEMERIS_TYPE": 0, "CLASSIFICATION_TYPE": "U", "NORAD_CAT_ID": 31906, "ELEMENT_SET_NO": 999, "REV_AT_EPOCH": 95142, "BSTAR": 0.0029769204, "MEAN_MOTION_DOT": 6.982e-05, "MEAN_MOTION_DDOT": 0}, "tle": {"line1": "1 31906U 99025CLH 25347.63949789  .00006982  00000+0  29769-2 0  9999", "line2": "2 31906  98.6915 120.7471 0051804 121.7338 257.6192 14.24658752951421"}}, "geometry": {"type": "Point", "coordinates": [110.18775224450161, 52.75854133414052]}}, {"type": "Feature", "properties": {"norad_id": 31910, "name": "FENGYUN 1C DEB", "group": "fengyun-1c-debris", "lat": 78.75406208351946, "lon": -32.90461715530947, "alt_km": 661.1480943498646, "timestamp": "2025-12-14T16:47:40.968421+00:00", "meta": {"OBJECT_NAME": "FENGYUN 1C DEB", "OBJECT_ID": "1999-025CLM", "EPOCH": "2025-12-12T08:00:42.497280", "MEAN_MOTION": 14.47644708, "ECCENTRICITY": 0.02280256, "INCLINATION": 97.6669, "RA_OF_ASC_NODE": 7.5931, "ARG_OF_PERICENTER": 156.7592, "MEAN_ANOMALY": 204.4114, "EPHEMERIS_TYPE": 0, "CLASSIFICATION_TYPE": "U", "NORAD_CAT_ID": 31910, "ELEMENT_SET_NO": 999, "REV_AT_EPOCH": 64363, "BSTAR": 0.0011452264, "MEAN_MOTION_DOT": 5.818e-05, "MEAN_MOTION_DDOT": 0}, "tle": {"line1": "1 31910U 99025CLM 25346.33382520  .00005818  00000+0  11452-2 0  9991", "line2": "2 31910  97.6669   7.5931 0228025 156.7592 204.4114 14.47644708643631"}}, "geometry": {"type": "Point", "coordinates": [-32.90461715530947, 78.75406208351946]}}, {"type": "Feature", "properties": {"norad_id": 31913, "name": "FENGYUN 1C DEB", "group": "fengyun-1c-debris", "lat": -0.9502357763934016, "lon": 89.5270853182161, "alt_km": 1014.7232292101698, "timestamp": "2025-12-14T16:47:40.968431+00:00", "meta": {"OBJECT_NAME": "FENGYUN 1C DEB", "OBJECT_ID": "1999-025CLQ", "EPOCH": "2025-12-08T01:06:13.929120", "MEAN_MOTION": 13.91009259, "ECCENTRICITY": 0.02081952, "INCLINATION": 99.2947, "RA_OF_ASC_NODE": 263.0201, "ARG_OF_PERICENTER": 324.8669, "MEAN_ANOMALY": 33.8906, "EPHEMERIS_TYPE": 0, "CLASSIFICATION_TYPE": "U", "NORAD_CAT_ID": 31913, "ELEMENT_SET_NO": 999, "REV_AT_EPOCH": 55821, "BSTAR": 0.0095286258, "MEAN_MOTION_DOT": 0.00014234, "MEAN_MOTION_DDOT": 0}, "tle": {"line1": "1 31913U 99025CLQ 25342.04599455  .00014234  00000+0  95286-2 0  9994", "line2": "2 31913  99.2947 263.0201 0208195 324.8669  33.8906 13.91009259558215"}}, "geometry": {"type": "Point", "coordinates": [89.5270853182161, -0.9502357763934016]}}]}